ORBCOMM FM115           
1 41186U 15081H   24175.68437004  .00000899  00000+0  21733-3 0  9990
2 41186  47.0001 302.5538 0001565 243.4349 116.6378 14.60824923455326
ORBCOMM FM108           
1 41187U 15081J   24175.92471060  .00001085  00000+0  27813-3 0  9991
2 41187  47.0064 357.1206 0001794 120.9523 239.1539 14.56655843454531
ORBCOMM FM117           
1 41188U 15081K   24175.89066496  .00001099  00000+0  28084-3 0  9997
2 41188  47.0025 356.1607 0002766 129.2589 230.8542 14.56705439454626
ORBCOMM FM116           
1 41189U 15081L   24176.15398926  .00001136  00000+0  28939-3 0  9995
2 41189  47.0026  84.7384 0002033 215.8285 144.2463 14.56669872453490
